OBJECT_NAME,OBJECT_ID,EPOCH,MEAN_MOTION,ECCENTRICITY,INCLINATION,RA_OF_ASC_NODE,ARG_OF_PERICENTER,MEAN_ANOMALY,EPHEMERIS_TYPE,CLASSIFICATION_TYPE,NORAD_CAT_ID,ELEMENT_SET_NO,REV_AT_EPOCH,BSTAR,MEAN_MOTION_DOT,MEAN_MOTION_DDOT
TIANZHOU-10,2026-102A,2026-06-06T20:46:47.642880,15.60367779,.00089466,41.4717,24.7959,356.7264,3.3515,0,U,69049,999,420,.29301982E-3,.24497E-3,0
QIANFAN-127,2026-104A,2026-06-06T18:43:15.875040,14.21401881,.00051395,88.9859,342.7902,133.8260,226.3357,0,U,69073,999,361,.40682238E-4,.103E-5,0
QIANFAN-128,2026-104B,2026-06-06T08:15:41.160960,14.18045988,.00046601,88.9864,342.8573,133.6738,226.4838,0,U,69074,999,354,.51669438E-4,.12E-5,0
QIANFAN-129,2026-104C,2026-06-06T10:55:36.661152,14.25500617,.00050363,88.9863,342.8175,141.9147,218.2403,0,U,69075,999,357,.50423827E-4,.134E-5,0
QIANFAN-130,2026-104D,2026-06-06T16:24:15.910272,14.18122932,.00050342,88.9866,342.8148,122.6285,237.5390,0,U,69076,999,359,.41719446E-4,.1E-5,0
QIANFAN-131,2026-104E,2026-06-06T10:39:05.819904,14.20505824,.00042529,88.9862,342.8344,140.1028,220.0476,0,U,69077,999,356,.44429988E-4,.11E-5,0
QIANFAN-132,2026-104F,2026-06-06T08:12:03.137472,14.18147314,.00050706,88.9863,342.8567,132.4440,227.7178,0,U,69078,999,354,.55255205E-4,.128E-5,0
QIANFAN-133,2026-104G,2026-06-06T14:35:15.725760,14.18423976,.00042447,88.9864,342.8210,139.3315,220.8192,0,U,69079,999,358,.40791866E-4,.99E-6,0
QIANFAN-134,2026-104H,2026-06-06T14:27:06.689664,14.18663044,.00053906,88.9864,342.8211,125.3281,234.8413,0,U,69080,999,358,.34756083E-4,.86E-6,0
QIANFAN-135,2026-104J,2026-06-06T16:01:28.138656,14.19141750,.00045405,88.9865,342.8125,146.7367,213.4109,0,U,69081,999,359,.39789394E-4,.98E-6,0
QIANFAN-136,2026-104K,2026-06-06T15:55:24.389472,14.19293228,.00051465,88.9865,342.8116,139.4310,220.7264,0,U,69082,999,359,.39680058E-4,.98E-6,0
QIANFAN-137,2026-104L,2026-06-06T19:31:36.676416,14.24907891,.00054471,88.9863,342.7776,133.3700,226.7948,0,U,69083,999,362,.42041864E-4,.113E-5,0
QIANFAN-138,2026-104M,2026-06-06T19:00:41.568192,14.20300945,.00045995,88.9863,342.7935,136.9712,223.1839,0,U,69084,999,361,.51264638E-4,.124E-5,0
QIANFAN-139,2026-104N,2026-06-06T15:30:41.306688,14.20485543,.00041722,88.9861,342.8086,131.6735,228.4813,0,U,69085,999,359,.34092103E-4,.88E-6,0
QIANFAN-140,2026-104P,2026-06-06T08:38:25.254528,14.21392259,.00044361,88.9863,342.8405,138.9972,221.1553,0,U,69086,999,355,.53007815E-4,.13E-5,0
QIANFAN-141,2026-104Q,2026-06-06T15:17:56.386752,14.21094877,.00038673,88.9864,342.8074,132.4936,227.6582,0,U,69087,999,359,.35204465E-4,.91E-6,0
QIANFAN-142,2026-104R,2026-06-06T15:10:26.097600,14.21405918,.00036514,88.9876,342.8063,117.4263,242.7300,0,U,69088,999,359,.39987268E-4,.102E-5,0
QIANFAN-143,2026-104S,2026-06-06T09:47:41.395200,14.23171036,.00046113,88.9863,342.8289,129.0377,231.1226,0,U,69089,999,356,.51147457E-4,.13E-5,0
QIANFAN-144,2026-104T,2026-06-06T09:56:08.801664,14.22581820,.00039634,88.9863,342.8299,120.6673,239.4909,0,U,69090,999,356,.5348239E-4,.134E-5,0
2026-106A,2026-106A,2026-06-04T15:09:10.862208,15.11037132,.0013466,97.5095,237.9435,203.5034,156.5582,0,U,69097,999,308,.543886E-3,.9052E-4,0
2026-106B,2026-106B,2026-06-04T15:16:55.543008,15.09575067,.00142668,97.5082,237.9319,199.5733,160.4950,0,U,69098,999,308,.42602016E-3,.6796E-4,0
2026-106C,2026-106C,2026-06-04T15:08:24.576864,15.11076088,.00135546,97.5097,237.9445,204.3760,155.6830,0,U,69099,999,308,.53277866E-3,.8876E-4,0
2026-106D,2026-106D,2026-06-04T15:05:56.171040,15.11202473,.00131226,97.5062,237.9411,207.0214,153.0334,0,U,69100,999,308,.49447297E-3,.826E-4,0
2026-106E,2026-106E,2026-06-04T15:00:25.283232,15.11460406,.0015124,97.5073,237.9468,208.9127,151.1267,0,U,69101,999,308,.54174936E-3,.9128E-4,0
DRAGON CRS-34,2026-107A,2026-06-06T20:52:03.052128,15.49642340,.00069776,51.6338,351.1688,142.0049,218.1433,0,U,69103,999,64291,.17236766E-3,.9276E-4,0
QIANFAN-146,2026-108B,2026-06-06T12:50:38.851296,14.22869084,.00157836,89.0128,23.3911,144.2998,215.9252,0,U,69105,999,284,.83403218E-4,.202E-5,0
